[{"OBJECT_NAME":"STARLINK-1350","OBJECT_ID":"2020-025E","EPOCH":"2026-03-09T06:29:12.850368","MEAN_MOTION":15.36101991,"ECCENTRICITY":0.00022158,"INCLINATION":53.0734,"RA_OF_ASC_NODE":35.1149,"ARG_OF_PERICENTER":70.5154,"MEAN_ANOMALY":289.6087,"EPHEMERIS_TYPE":0,"CLASSIFICATION_TYPE":"U","NORAD_CAT_ID":45535,"ELEMENT_SET_NO":999,"REV_AT_EPOCH":32609,"BSTAR":0.00042940249,"MEAN_MOTION_DOT":0.00014967,"MEAN_MOTION_DDOT":0},{"OBJECT_NAME":"FLOCK 4BE-30","OBJECT_ID":"2024-149AH","EPOCH":"2026-03-09T19:28:17.914080","MEAN_MOTION":15.38312015,"ECCENTRICITY":0.00020027,"INCLINATION":97.38,"RA_OF_ASC_NODE":152.4815,"ARG_OF_PERICENTER":262.5505,"MEAN_ANOMALY":97.5512,"EPHEMERIS_TYPE":0,"CLASSIFICATION_TYPE":"U","NORAD_CAT_ID":60499,"ELEMENT_SET_NO":999,"REV_AT_EPOCH":8641,"BSTAR":0.00039222707,"MEAN_MOTION_DOT":0.00014739,"MEAN_MOTION_DDOT":0}]
